{
  "links" : {
    "next" : "https://api.nasa.gov/neo/rest/v1/feed?start_date=1995-06-23&end_date=1995-06-23&detailed=true&api_key=t0TVs3DtDT2H8Oy2Zy8m2eVrNsAVKAexjcZXUckd",
    "prev" : "https://api.nasa.gov/neo/rest/v1/feed?start_date=1995-06-21&end_date=1995-06-21&detailed=true&api_key=t0TVs3DtDT2H8Oy2Zy8m2eVrNsAVKAexjcZXUckd",
    "self" : "https://api.nasa.gov/neo/rest/v1/feed?start_date=1995-06-22&end_date=1995-06-22&detailed=true&api_key=t0TVs3DtDT2H8Oy2Zy8m2eVrNsAVKAexjcZXUckd"
  },
  "element_count" : 5,
  "near_earth_objects" : {
    "1995-06-22" : [ {
      "links" : {
        "self" : "https://api.nasa.gov/neo/rest/v1/neo/3608823?api_key=t0TVs3DtDT2H8Oy2Zy8m2eVrNsAVKAexjcZXUckd"
      },
      "neo_reference_id" : "3608823",
      "name" : "(2012 SU9)",
      "nasa_jpl_url" : "http://ssd.jpl.nasa.gov/sbdb.cgi?sstr=3608823",
      "absolute_magnitude_h" : 27.2,
      "estimated_diameter" : {
        "kilometers" : {
          "estimated_diameter_min" : 0.0096506147,
          "estimated_diameter_max" : 0.0215794305
        },
        "meters" : {
          "estimated_diameter_min" : 9.6506146958,
          "estimated_diameter_max" : 21.5794304844
        },
        "miles" : {
          "estimated_diameter_min" : 0.0059966121,
          "estimated_diameter_max" : 0.0134088323
        },
        "feet" : {
          "estimated_diameter_min" : 31.6621227185,
          "estimated_diameter_max" : 70.7986587106
        }
      },
      "is_potentially_hazardous_asteroid" : false,
      "close_approach_data" : [ {
        "close_approach_date" : "1995-06-22",
        "epoch_date_close_approach" : 803804400000,
        "relative_velocity" : {
          "kilometers_per_second" : "12.5265347443",
          "kilometers_per_hour" : "45095.5250793342",
          "miles_per_hour" : "28020.6055694341"
        },
        "miss_distance" : {
          "astronomical" : "0.373472573",
          "lunar" : "145.2808227539",
          "kilometers" : "55870700",
          "miles" : "34716444"
        },
        "orbiting_body" : "Earth"
      } ],
      "orbital_data" : {
        "orbit_id" : "7",
        "orbit_determination_date" : "2017-04-06 08:48:55",
        "orbit_uncertainty" : "7",
        "minimum_orbit_intersection" : ".00396247",
        "jupiter_tisserand_invariant" : "6.385",
        "epoch_osculation" : "2458000.5",
        "eccentricity" : ".3601241569688025",
        "semi_major_axis" : ".9297454068141836",
        "inclination" : ".4952217100602064",
        "ascending_node_longitude" : "323.4926064565487",
        "orbital_period" : "327.4496187621624",
        "perihelion_distance" : ".5949216259896094",
        "perihelion_argument" : "264.2658160994401",
        "aphelion_distance" : "1.264569187638758",
        "perihelion_time" : "2458072.033206990197",
        "mean_anomaly" : "281.3559795432977",
        "mean_motion" : "1.099405769232182",
        "equinox" : "J2000"
      }
    }, {
      "links" : {
        "self" : "https://api.nasa.gov/neo/rest/v1/neo/3775092?api_key=t0TVs3DtDT2H8Oy2Zy8m2eVrNsAVKAexjcZXUckd"
      },
      "neo_reference_id" : "3775092",
      "name" : "(2017 KS31)",
      "nasa_jpl_url" : "http://ssd.jpl.nasa.gov/sbdb.cgi?sstr=3775092",
      "absolute_magnitude_h" : 21.571,
      "estimated_diameter" : {
        "kilometers" : {
          "estimated_diameter_min" : 0.1289302951,
          "estimated_diameter_max" : 0.2882969041
        },
        "meters" : {
          "estimated_diameter_min" : 128.9302950744,
          "estimated_diameter_max" : 288.2969041454
        },
        "miles" : {
          "estimated_diameter_min" : 0.0801135464,
          "estimated_diameter_max" : 0.1791393356
        },
        "feet" : {
          "estimated_diameter_min" : 422.9996692919,
          "estimated_diameter_max" : 945.8560149965
        }
      },
      "is_potentially_hazardous_asteroid" : false,
      "close_approach_data" : [ {
        "close_approach_date" : "1995-06-22",
        "epoch_date_close_approach" : 803804400000,
        "relative_velocity" : {
          "kilometers_per_second" : "12.8353276218",
          "kilometers_per_hour" : "46207.179438313",
          "miles_per_hour" : "28711.3443571006"
        },
        "miss_distance" : {
          "astronomical" : "0.3169188022",
          "lunar" : "123.2814102173",
          "kilometers" : "47410376",
          "miles" : "29459442"
        },
        "orbiting_body" : "Earth"
      } ],
      "orbital_data" : {
        "orbit_id" : "4",
        "orbit_determination_date" : "2017-09-16 06:18:39",
        "orbit_uncertainty" : "5",
        "minimum_orbit_intersection" : ".119136",
        "jupiter_tisserand_invariant" : "4.491",
        "epoch_osculation" : "2458000.5",
        "eccentricity" : ".294842973658921",
        "semi_major_axis" : "1.498548586522003",
        "inclination" : "6.801303325578496",
        "ascending_node_longitude" : "56.16673208709447",
        "orbital_period" : "670.0460779441441",
        "perihelion_distance" : "1.056712065099482",
        "perihelion_argument" : "259.3072848150319",
        "aphelion_distance" : "1.940385107944523",
        "perihelion_time" : "2457965.063673358799",
        "mean_anomaly" : "19.03910493734082",
        "mean_motion" : ".5372764826928963",
        "equinox" : "J2000"
      }
    } ]
  }
}